[{"OBJECT_NAME":"STARLINK-3129","OBJECT_ID":"2021-104AX","EPOCH":"2026-03-09T16:20:11.975424","MEAN_MOTION":15.08844076,"ECCENTRICITY":0.00011327,"INCLINATION":53.2176,"RA_OF_ASC_NODE":219.2491,"ARG_OF_PERICENTER":81.7118,"MEAN_ANOMALY":278.4002,"EPHEMERIS_TYPE":0,"CLASSIFICATION_TYPE":"U","NORAD_CAT_ID":49453,"ELEMENT_SET_NO":999,"REV_AT_EPOCH":23877,"BSTAR":-3.1337388e-5,"MEAN_MOTION_DOT":-7.87e-6,"MEAN_MOTION_DDOT":0},{"OBJECT_NAME":"LEMUR-2-MARHISYAM","OBJECT_ID":"2024-149BW","EPOCH":"2026-03-09T17:46:07.876416","MEAN_MOTION":15.0901552,"ECCENTRICITY":0.00035778,"INCLINATION":97.6912,"RA_OF_ASC_NODE":151.2662,"ARG_OF_PERICENTER":107.3271,"MEAN_ANOMALY":252.8349,"EPHEMERIS_TYPE":0,"CLASSIFICATION_TYPE":"U","NORAD_CAT_ID":60536,"ELEMENT_SET_NO":999,"REV_AT_EPOCH":8547,"BSTAR":0.00082973442,"MEAN_MOTION_DOT":0.00013075,"MEAN_MOTION_DDOT":0}]
