STARLINK-3129           
1 49453U 21104AX  26068.68069416 -.00000787  00000+0 -31337-4 0  9999
2 49453  53.2176 219.2491 0001133  81.7118 278.4002 15.08844076238776
LEMUR-2-MARHISYAM       
1 60536U 24149BW  26068.74036894  .00013075  00000+0  82973-3 0  9990
2 60536  97.6912 151.2662 0003578 107.3271 252.8349 15.09015520 85478
